NORAD_CAT_ID,OBJECT_NAME,OBJECT_TYPE,EPOCH,MEAN_MOTION,ECCENTRICITY,INCLINATION,RA_OF_ASC_NODE,ARG_OF_PERICENTER,MEAN_ANOMALY,BSTAR,MEAN_MOTION_DOT,MEAN_MOTION_DDOT,TLE_LINE0,TLE_LINE1,TLE_LINE2,SEMIMAJOR_AXIS,PERIOD,APOGEE,PERIGEE,DECAYED
53269.0,STARLINK-4057,PAYLOAD,2022-09-19 14:00:01,15.7323315,0.0001773,53.2172,121.0136,35.6116,308.0047,0.00018345,0.0002524,0.0,0 STARLINK-4057,1 53269U 22086AD  22262.58334491  .00025240  00000-0  18345-3 0  9991,2 53269  53.2172 121.0136 0001773  35.6116 308.0047 15.73233150  9608,6727.801,91.531,350.8590000000001,348.473,0.0
53269.0,STARLINK-4057,PAYLOAD,2022-09-19 22:00:00,15.73222373,0.0001974,53.2171,119.3664,30.5431,42.0284,-0.00047435,-0.00066736,0.0,0 STARLINK-4057,1 53269U 22086AD  22262.91667824 -.00066736  00000-0 -47435-3 0  9996,2 53269  53.2171 119.3664 0001974  30.5431  42.0284 15.73222373  9669,6727.831,91.532,351.024,348.36800000000005,0.0
53269.0,STARLINK-4057,PAYLOAD,2022-09-20 06:00:00,15.73206876,0.0001898,53.2169,117.7161,30.032,131.4759,-0.00027736,-0.00039379,0.0,0 STARLINK-4057,1 53269U 22086AD  22263.25001157 -.00039379  00000-0 -27736-3 0  9990,2 53269  53.2169 117.7161 0001898  30.0320 131.4759 15.73206876  9713,6727.876,91.533,351.01800000000014,348.464,0.0
53269.0,STARLINK-4057,PAYLOAD,2022-09-20 14:00:01,15.73149392,0.000174,53.2166,116.0653,30.9012,219.5285,0.00028271,0.00039156,0.0,0 STARLINK-4057,1 53269U 22086AD  22263.58334491  .00039156  00000-0  28271-3 0  9992,2 53269  53.2166 116.0653 0001740  30.9012 219.5285 15.73149392  1309,6728.0390000000025,91.536,351.075,348.7340000000001,0.0
53269.0,STARLINK-4057,PAYLOAD,2022-09-20 22:00:01,15.73165568,0.0002025,53.2162,114.4174,27.832,311.5481,0.00035214,0.00049018,0.0,0 STARLINK-4057,1 53269U 22086AD  22263.91668981  .00049018  00000-0  35214-3 0  9996,2 53269  53.2162 114.4174 0002025  27.8320 311.5481 15.73165568  1303,6727.993,91.535,351.221,348.496,0.0
53269.0,STARLINK-4057,PAYLOAD,2022-09-21 14:00:01,15.73168268,0.0001899999999999,53.2155,111.1174,37.576,119.5811,0.00045166,0.00063161,0.0,0 STARLINK-4057,1 53269U 22086AD  22264.58334491  .00063161  00000-0  45166-3 0  9998,2 53269  53.2155 111.1174 0001900  37.5760 119.5811 15.73168268  9925,6727.986,91.535,351.129,348.57199999999995,0.0
53269.0,STARLINK-4057,PAYLOAD,2022-09-21 22:00:00,15.73202287,0.0002109999999999,53.2153,109.4701,31.1142,214.9603,0.00025605,0.00035471,0.0,0 STARLINK-4057,1 53269U 22086AD  22264.91667824  .00035471  00000-0  25605-3 0  9993,2 53269  53.2153 109.4701 0002110  31.1142 214.9603 15.73202287  1300,6727.889,91.533,351.173,348.334,0.0
53269.0,STARLINK-4057,PAYLOAD,2022-09-22 06:00:00,15.73274213,0.000186,53.2157,107.8087,25.1134,309.9134,-0.0012546,-0.00173676,0.0,0 STARLINK-4057,1 53269U 22086AD  22265.25001157 -.00173676  00000-0 -12546-2 0  9993,2 53269  53.2157 107.8087 0001860  25.1134 309.9134 15.73274213 10029,6727.684,91.529,350.8,348.297,0.0
53269.0,STARLINK-4057,PAYLOAD,2022-09-22 14:00:01,15.73185984,0.0001778,53.2165,106.1468,25.2967,38.6922,-0.0041218,-0.00542984,0.0,0 STARLINK-4057,1 53269U 22086AD  22265.58334491 -.00542984  00000-0 -41218-2 0  9999,2 53269  53.2165 106.1468 0001778  25.2967  38.6922 15.73185984  1304,6727.935,91.534,350.996,348.60400000000016,0.0
53269.0,STARLINK-4057,PAYLOAD,2022-09-22 22:00:00,15.72850772,0.0002143,53.2173,104.4934,29.0163,123.6659,-0.0083891,-0.01045074,0.0,0 STARLINK-4057,1 53269U 22086AD  22265.91667824 -.01045074  00000-0 -83891-2 0  9997,2 53269  53.2173 104.4934 0002143  29.0163 123.6659 15.72850772  1304,6728.891,91.554,352.1980000000001,349.314,0.0
53269.0,STARLINK-4057,PAYLOAD,2022-09-23 14:00:01,15.71377902,0.0006319,53.217,101.1915,270.4421,57.4097,-0.0095289,-0.01109709,0.0,0 STARLINK-4057,1 53269U 22086AD  22266.58334491 -.01109709  00000-0 -95289-2 0  9992,2 53269  53.2170 101.1915 0006319 270.4421  57.4097 15.71377902 10232,6733.095,91.639,359.215,350.705,0.0
53269.0,STARLINK-4057,PAYLOAD,2022-09-23 22:00:00,15.705863199999998,0.0001344,53.2174,99.5445,3.9006,50.1926,-0.0094377999999999,-0.01064899,0.0,0 STARLINK-4057,1 53269U 22086AD  22266.91667824 -.01064899  00000-0 -94378-2 0  9996,2 53269  53.2174  99.5445 0001344   3.9006  50.1926 15.70586320 10297,6735.357,91.686,358.12699999999984,356.31699999999995,0.0
53269.0,STARLINK-4057,PAYLOAD,2022-09-24 14:00:01,15.69028665,0.0001425,53.2167,96.2533,56.7202,167.173,-0.0095318,-0.01013108,0.0,0 STARLINK-4057,1 53269U 22086AD  22267.58335648 -.01013108  00000-0 -95318-2 0  9998,2 53269  53.2167  96.2533 0001425  56.7202 167.1730 15.69028665  1300,6739.814,91.777,362.64,360.719,0.0
53269.0,STARLINK-4057,PAYLOAD,2022-09-24 22:00:00,15.68299467,0.0001351,53.2175,94.6082,46.7116,260.5912,-0.0102569999999999,-0.0105318,0.0,0 STARLINK-4057,1 53269U 22086AD  22267.91667824 -.01053180  00000-0 -10257-1 0  9991,2 53269  53.2175  94.6082 0001351  46.7116 260.5912 15.68299467 10445,6741.903,91.819,364.679,362.857,0.0
53269.0,STARLINK-4057,PAYLOAD,2022-09-25 14:00:01,15.66778331,0.0001473,53.2177,91.3275,44.5483,66.9949,-0.01087,-0.01049019,0.0,0 STARLINK-4057,1 53269U 22086AD  22268.58334491 -.01049019  00000-0 -10870-1 0  9993,2 53269  53.2177  91.3275 0001473  44.5483  66.9949 15.66778331  1306,6746.266,91.908,369.125,367.137,0.0
53269.0,STARLINK-4057,PAYLOAD,2022-09-25 22:00:01,15.66016686,0.0001547,53.2175,89.6926,46.3449,146.0135,-0.0111659999999999,-0.01045171,0.0,0 STARLINK-4057,1 53269U 22086AD  22268.91668981 -.01045171  00000-0 -11166-1 0  9998,2 53269  53.2175  89.6926 0001547  46.3449 146.0135 15.66016686 10609,6748.453,91.953,371.362,369.274,0.0
53269.0,STARLINK-4057,PAYLOAD,2022-09-26 14:00:01,15.64499588,0.0001431,53.2165,86.4272,38.1047,312.9493,-0.011918,-0.01048949,0.0,0 STARLINK-4057,1 53269U 22086AD  22269.58334491 -.01048949  00000-0 -11918-1 0  9999,2 53269  53.2165  86.4272 0001431  38.1047 312.9493 15.64499588  1304,6752.815,92.042,375.647,373.714,0.0
53269.0,STARLINK-4057,PAYLOAD,2022-09-26 22:00:00,15.63605797,0.0001733999999999,53.2169,84.7979,34.1724,34.9599,-0.010052,-0.00870297,0.0,0 STARLINK-4057,1 53269U 22086AD  22269.91667824 -.00870297  00000-0 -10052-1 0  9991,2 53269  53.2169  84.7979 0001734  34.1724  34.9599 15.63605797  1305,6755.388000000001,92.095,378.425,376.082,0.0
53269.0,STARLINK-4057,PAYLOAD,2022-09-27 06:00:00,15.62992124,0.0001808,53.2168,83.1675,31.4859,114.6732,-0.012828,-0.01078682,0.0,0 STARLINK-4057,1 53269U 22086AD  22270.25001157 -.01078682  00000-0 -12828-1 0  9993,2 53269  53.2168  83.1675 0001808  31.4859 114.6732 15.62992124 10814,6757.156999999997,92.131,380.24300000000005,377.8,0.0
53269.0,STARLINK-4057,PAYLOAD,2022-09-27 14:00:01,15.6220563,0.0001621999999999,53.217,81.5395,43.9892,178.3717,-0.012761,-0.01027926,0.0,0 STARLINK-4057,1 53269U 22086AD  22270.58334491 -.01027926  00000-0 -12761-1 0  9990,2 53269  53.2170  81.5395 0001622  43.9892 178.3717 15.62205630  1300,6759.424,92.177,382.386,380.193,0.0
53269.0,STARLINK-4057,PAYLOAD,2022-09-27 22:00:01,15.61440117,0.0001629,53.2168,79.9159,37.8486,259.8524,-0.013016,-0.0101856,0.0,0 STARLINK-4057,1 53269U 22086AD  22270.91668981 -.01018560  00000-0 -13016-1 0  9999,2 53269  53.2168  79.9159 0001629  37.8486 259.8524 15.61440117  1305,6761.6330000000025,92.223,384.6,382.397,0.0
53269.0,STARLINK-4057,PAYLOAD,2022-09-28 06:00:00,15.60702467,0.0001485,53.2174,78.2854,33.8301,338.161,-0.0138199999999999,-0.01063885,0.0,0 STARLINK-4057,1 53269U 22086AD  22271.25001157 -.01063885  00000-0 -13820-1 0  9996,2 53269  53.2174  78.2854 0001485  33.8301 338.1610 15.60702467 10976,6763.764,92.266,386.633,384.624,0.0
53269.0,STARLINK-4057,PAYLOAD,2022-09-28 14:00:01,15.59943685,0.0001665999999999,53.2176,76.6641,34.7158,50.7236,-0.014241,-0.01064626,0.0,0 STARLINK-4057,1 53269U 22086AD  22271.58334491 -.01064626  00000-0 -14241-1 0  9994,2 53269  53.2176  76.6641 0001666  34.7158  50.7236 15.59943685  1300,6765.956999999999,92.311,388.949,386.695,0.0
53269.0,STARLINK-4057,PAYLOAD,2022-09-28 22:00:00,15.59171459,0.0001576999999999,53.2165,75.0502,44.5066,113.4709,-0.014377,-0.0104523,0.0,0 STARLINK-4057,1 53269U 22086AD  22271.91667824 -.01045230  00000-0 -14377-1 0  9990,2 53269  53.2165  75.0502 0001577  44.5066 113.4709 15.59171459  1309,6768.191,92.357,391.12300000000016,388.98800000000006,0.0
53269.0,STARLINK-4057,PAYLOAD,2022-09-29 06:00:00,15.58422226,0.0001426999999999,53.2173,73.4261,49.5231,180.0769,-0.015022,-0.01059881,0.0,0 STARLINK-4057,1 53269U 22086AD  22272.25001157 -.01059881  00000-0 -15022-1 0  9994,2 53269  53.2173  73.4261 0001427  49.5231 180.0769 15.58422226 11122,6770.36,92.401,393.191,391.259,0.0
53269.0,STARLINK-4057,PAYLOAD,2022-09-29 14:00:01,15.57663638,0.0001422,53.2166,71.8136,44.1248,256.1835,-0.015488,-0.01061607,0.0,0 STARLINK-4057,1 53269U 22086AD  22272.58334491 -.01061607  00000-0 -15488-1 0  9995,2 53269  53.2166  71.8136 0001422  44.1248 256.1835 15.57663638  1302,6772.558000000001,92.446,395.386,393.46,0.0
53269.0,STARLINK-4057,PAYLOAD,2022-09-29 22:00:00,15.56882132,0.0001624,53.2166,70.20100000000001,33.4638,336.6527,-0.015455,-0.01031515,0.0,0 STARLINK-4057,1 53269U 22086AD  22272.91667824 -.01031515  00000-0 -15455-1 0  9990,2 53269  53.2166  70.2010 0001624  33.4638 336.6527 15.56882132 11230,6774.824000000001,92.493,397.789,395.589,0.0
53269.0,STARLINK-4057,PAYLOAD,2022-09-30 14:00:01,15.55381592,0.0001764999999999,53.2168,66.9751,37.2461,109.7208,-0.0167669999999999,-0.01055772,0.0,0 STARLINK-4057,1 53269U 22086AD  22273.58334491 -.01055772  00000-0 -16767-1 0  9993,2 53269  53.2168  66.9751 0001765  37.2461 109.7208 15.55381592  1303,6779.181,92.582,402.242,399.849,0.0
53269.0,STARLINK-4057,PAYLOAD,2022-09-30 16:00:00,15.5519301,0.0001668,53.2173,66.5712,37.1551,216.6626,-0.016908,-0.01057068,0.0,0 STARLINK-4057,1 53269U 22086AD  22273.66667824 -.01057068  00000-0 -16908-1 0  9998,2 53269  53.2173  66.5712 0001668  37.1551 216.6626 15.55193010 11346,6779.729,92.593,402.724,400.463,0.0
